#aV2007  7  5  0  0   .00000000      96 DD+AD WGS84 FIT  NGA
## 1434 345600.00000000   900.00000000 54286  .0000000000000
+   31     1  2  3  4  5  6  7  8  9 10 11 12 13 14 16 17 18
+         19 20 21 22 23 24 25 26 27 28 29 30 31 32  0  0  0
+          0  0  0  0  0  0  0  0  0  0  0  0  0  0  0  0  0
+          0  0  0  0  0  0  0  0  0  0  0  0  0  0  0  0  0
+          0  0  0  0  0  0  0  0  0  0  0  0  0  0  0  0  0
++         0  0  0  0  0  0  0  0  0  0  0  0  0  0  0  0  0
++         0  0  0  0  0  0  0  0  0  0  0  0  0  0  0  0  0
++         0  0  0  0  0  0  0  0  0  0  0  0  0  0  0  0  0
++         0  0  0  0  0  0  0  0  0  0  0  0  0  0  0  0  0
++         0  0  0  0  0  0  0  0  0  0  0  0  0  0  0  0  0
%c cc cc ccc ccc cccc cccc cccc cccc ccccc ccccc ccccc ccccc
%c cc cc ccc ccc cccc cccc cccc cccc ccccc ccccc ccccc ccccc
%f  0.0000000  0.000000000  0.00000000000  0.000000000000000
%f  0.0000000  0.000000000  0.00000000000  0.000000000000000
%i    0    0    0    0      0      0      0      0         0
%i    0    0    0    0      0      0      0      0         0
/*      NGA, ST. LOUIS,MO.                                  
/*   EPHEMERIS COMPUTED FROM  3 DAYS OF DATA                
/* CCCCCCCCCCCCCCCCCCCCCCCCCCCCCCCCCCCCCCCCCCCCCCCCCCCCCCCCC
/* CCCCCCCCCCCCCCCCCCCCCCCCCCCCCCCCCCCCCCCCCCCCCCCCCCCCCCCCC
*  2007  7  5  5 30   .00000000                                                 
P  1  11084.611768  13945.480224  19925.721765    138.044530                    
V  1 -24746.261313  -1104.071106  14624.756606       .022994                    
P  2 -13398.205338 -23112.629932   -813.340356    119.204805                    
V  2   2274.073073  -2148.022632  31210.195547       .028356                    
P  3  17549.925450  11369.051700 -16773.642822     82.002254                    
V  3 -20673.712822   3695.976421 -19029.505898       .055145                    
P  4  -4308.133604 -23942.745761  10153.893305      7.784802                    
V  4   8953.759376  10135.664423  27871.731326      -.012250                    
P  5 -18162.434758   8349.818161  17172.732359    140.048775                    
V  5   8014.744187 -21031.964190  18595.147835       .471753                    
P  6 -23409.453231   7580.307645  -9859.902804    229.198170                    
V  6 -12869.715282  -3140.259227  27564.894081       .072893                    
P  7 -21322.854896   9781.264353 -12158.632885    221.483477                    
V  7 -16125.966006  -2447.038658  25525.644156      -.198280                    
P  8   4114.610905 -19107.581500 -17882.319497   -113.670203                    
V  8  11224.551138  19683.892778 -18999.820458      -.014407                    
P  9 -18513.963133  -9620.311817  15956.313734     77.349011                    
V  9  -9292.875416 -19247.180570 -21371.089853       .017028                    
P 10  -6900.769305 -15363.536895 -20573.476200    104.237965                    
V 10  14930.589398 -21215.683086  11206.378291       .005831                    
P 11  20600.875867   5411.924713  15926.444855     19.842778                    
V 11  10401.116788  17979.300980 -19130.766222       .007996                    
P 12 -17555.857534   2139.936968  19899.578728    -48.551745                    
V 12  12068.843981 -21988.857134  13143.396562      -.010536                    
P 13  22810.491489  -6427.145476 -12063.576259    187.246240                    
V 13  14991.108748   2403.764826  27339.722238       .032467                    
P 14  -5200.396226  14198.600278  21905.788240     28.319120                    
V 14 -27507.626779  -1660.016276  -5557.560248       .019489                    
P 16   1944.423680  19707.694540 -17541.348917    160.413434                    
V 16 -13474.463500  18085.980099  18890.864230       .026858                    
P 17   7668.601575 -14431.192464  20930.247706     62.329658                    
V 17  26526.157949   1709.337099  -8678.223637      -.013095                    
P 18 -17333.039324  19115.220061  -5313.231031   -245.373620                    
V 18   1157.457307  -7652.692429 -30825.097038       .011995                    
P 19  24147.782054   7816.242848  -7938.872051     48.215694                    
V 19 -10388.639931   1719.372475 -29405.082976       .030329                    
P 20  18227.571585  -4750.493029  18608.255526    -26.405596                    
V 20 -10822.823450  21351.763596  15992.750131      -.004487                    
P 21 -11175.169389  11713.756831 -20836.353133     78.432907                    
V 21 -13036.841330 -23603.594999  -6821.140380       .002413                    
P 22 -10359.639015  23580.344572   6557.874098    189.452261                    
V 22  -7068.032402   5049.248238 -30065.152324       .014384                    
P 23  26594.326143   -707.226097  -2069.691599    179.199115                    
V 23   2444.514229   2379.432064  31687.361799       .031724                    
P 24 -16449.914137   -696.573186 -20577.914385     12.705375                    
V 24 -10559.401866 -24522.672484   9462.969611       .029379                    
P 25  14538.490547  -5059.476446 -21264.375857    351.265638                    
V 25  15128.352640  23434.954788   4835.702378       .185052                    
P 26 -22404.560944  -9222.034166 -11964.645440   -288.641018                    
V 26  14281.373109   -114.760759 -27158.488257      -.218688                    
P 27   9691.651134 -11939.580926 -20983.843724    120.689924                    
V 27  15540.355702  23535.301208  -6252.692023       .022360                    
P 28  12311.556030 -23149.433506   3161.461486     -2.357956                    
V 28   4511.691098  -1421.093799 -31673.959301      -.008472                    
P 29 -19476.065367 -10316.711984 -14894.431301      4.268047                    
V 29  19092.309497   -733.904042 -23763.508474       .002817                    
P 30 -18367.465678  13963.164461  12746.159654     38.593922                    
V 30   5772.712096 -15985.140608  25321.571726       .011149                    
P 31   6366.621339  24279.098455   8769.113796     16.481896                    
V 31  -7454.404873  -8323.554983  29175.782260      -.009008                    
P 32   -393.557341  20541.035135  17371.947381    492.422307                    
V 32 -13471.979640  16253.299017 -19946.060502       .212184                    
EOF
